23455,NOAA 14,1994,101.8,-1.0,-,98.46,Inactive,0,LEO,USA,USA,Unknown,Unknown,Unknown,1 23455U 94089A   25158.54074962  .00000049  00000+0  46801-4 0  9992,2 23455  98.4636 141.4651 0010680  81.4174 278.8210 14.14585339570237,14.14585339,0.001068,LEO
25338,NOAA 15,1998,100.91,2223.0,B,98.53,Active,1,LEO,USA,USA,Government,Earth Observation,Titan,1 25338U 98030A   25158.84816812  .00000217  00000+0  10703-3 0  9993,2 25338  98.5347 184.0212 0010345  11.7277 348.4143 14.26978783408155,14.26978783,0.0010345,LEO
28654,NOAA 18,2005,101.87,2223.0,B,98.84,Active,1,LEO,USA,USA,Government,Earth Observation,Delta,1 28654U 05018A   25158.85258494  .00000064  00000+0  57426-4 0  9992,2 28654  98.8423 238.3483 0015150 131.9844 228.2621 14.13609833 33506,14.13609833,0.001515,LEO
33591,NOAA 19,2009,101.88,1420.0,+,99.0,Active,1,LEO,USA,USA,Government,Earth Observation,Delta,1 33591U 09005A   25158.85876526  .00000180  00000+0  11973-3 0  9995,2 33591  98.9972 223.5536 0013823  13.4362 346.7175 14.13373529841867,14.13373529,0.0013823,LEO
37849,SUOMI NPP,2011,101.44,2128.0,+,98.76,Active,1,LEO,USA,USA,Government,Earth Observation,Delta,1 37849U 11061A   25158.85004541  .00000069  00000+0  53608-4 0  9998,2 37849  98.7579  98.1363 0001187  11.2533 348.8670 14.19538173705325,14.19538173,0.0001187,LEO
43013,NOAA 20 (JPSS-1),2017,101.44,2294.0,+,98.74,Active,1,LEO,USA,USA,Government,Earth Observation,Delta,1 43013U 17073A   25158.86555393  .00000052  00000+0  45600-4 0  9999,2 43013  98.7417  97.4641 0000591  16.6669 343.4526 14.19542752391368,14.19542752,5.91e-05,LEO
54234,NOAA 21 (JPSS-2),2022,101.44,-1.0,+,98.73,Active,0,LEO,USA,USA,Unknown,Unknown,Unknown,1 54234U 22150A   25158.54950152  .00000062  00000+0  49981-4 0  9992,2 54234  98.7272  97.4520 0001888 142.4636 217.6672 14.19537496133392,14.19537496,0.0001888,LEO
